{"type": "FeatureCollection", "features": [ {"type": "Feature", "properties": {"norad_id": 30385, "name": "FENGYUN 1C DEB", "group": "fengyun-1c-debris", "lat": -48.91597736697227, "lon": 167.7900261358166, "alt_km": 761.0015595384984, "timestamp": "2025-12-04T03:47:54.819301+00:00", "meta": {"OBJECT_NAME": "FENGYUN 1C DEB", "OBJECT_ID": "1999-025ACY", "EPOCH": "2025-12-03T08:26:23.152704", "MEAN_MOTION": 14.38754543, "ECCENTRICITY": 0.0124969, "INCLINATION": 99.0826, "RA_OF_ASC_NODE": 357.5089, "ARG_OF_PERICENTER": 317.3399, "MEAN_ANOMALY": 58.2448, "EPHEMERIS_TYPE": 0, "CLASSIFICATION_TYPE": "U", "NORAD_CAT_ID": 30385, "ELEMENT_SET_NO": 999, "REV_AT_EPOCH": 98634, "BSTAR": 0.00045072, "MEAN_MOTION_DOT": 1.462e-05, "MEAN_MOTION_DDOT": 0}, "tle": {"line1": "1 30385U 99025ACY 25337.35165686  .00001462  00000+0  45072-3 0  9997", "line2": "2 30385  99.0826 357.5089 0124969 317.3399  58.2448 14.38754543986343"}}, "geometry": {"type": "Point", "coordinates": [167.7900261358166, -48.91597736697227]}}, {"type": "Feature", "properties": {"norad_id": 30386, "name": "FENGYUN 1C DEB", "group": "fengyun-1c-debris", "lat": 2.8495383191138517, "lon": -125.9900729183082, "alt_km": 1279.0674266934793, "timestamp": "2025-12-04T03:47:54.819311+00:00", "meta": {"OBJECT_NAME": "FENGYUN 1C DEB", "OBJECT_ID": "1999-025ACZ", "EPOCH": "2025-12-03T03:47:05.224704", "MEAN_MOTION": 13.55532003, "ECCENTRICITY": 0.03034457, "INCLINATION": 98.6905, "RA_OF_ASC_NODE": 233.5629, "ARG_OF_PERICENTER": 180.7674, "MEAN_ANOMALY": 342.396, "EPHEMERIS_TYPE": 0, "CLASSIFICATION_TYPE": "U", "NORAD_CAT_ID": 30386, "ELEMENT_SET_NO": 999, "REV_AT_EPOCH": 92699, "BSTAR": 0.0016131689, "MEAN_MOTION_DOT": 1.469e-05, "MEAN_MOTION_DDOT": 0}, "tle": {"line1": "1 30386U 99025ACZ 25337.15769936  .00001469  00000+0  16132-2 0  9995", "line2": "2 30386  98.6905 233.5629 0303445 180.7674 342.3960 13.55532003926990"}}, "geometry": {"type": "Point", "coordinates": [-125.9900729183082, 2.8495383191138517]}}, {"type": "Feature", "properties": {"norad_id": 30387, "name": "FENGYUN 1C DEB", "group": "fengyun-1c-debris", "lat": 66.56461104673305, "lon": -27.09381892100231, "alt_km": 834.9235107162858, "timestamp": "2025-12-04T03:47:54.819321+00:00", "meta": {"OBJECT_NAME": "FENGYUN 1C DEB", "OBJECT_ID": "1999-025ADA", "EPOCH": "2025-12-03T00:28:02.183808", "MEAN_MOTION": 14.15036789, "ECCENTRICITY": 0.0001171, "INCLINATION": 98.6571, "RA_OF_ASC_NODE": 352.3785, "ARG_OF_PERICENTER": 100.3692, "MEAN_ANOMALY": 289.8557, "EPHEMERIS_TYPE": 0, "CLASSIFICATION_TYPE": "U", "NORAD_CAT_ID": 30387, "ELEMENT_SET_NO": 999, "REV_AT_EPOCH": 97187, "BSTAR": 0.0003463512, "MEAN_MOTION_DOT": 6.28e-06, "MEAN_MOTION_DDOT": 0}, "tle": {"line1": "1 30387U 99025ADA 25337.01946972  .00000628  00000+0  34635-3 0  9993", "line2": "2 30387  98.6571 352.3785 0001171 100.3692 289.8557 14.15036789971873"}}, "geometry": {"type": "Point", "coordinates": [-27.09381892100231, 66.56461104673305]}}, {"type": "Feature", "properties": {"norad_id": 30388, "name": "FENGYUN 1C DEB", "group": "fengyun-1c-debris", "lat": -19.28418386492856, "lon": 176.02826141179176, "alt_km": 887.9181782418627, "timestamp": "2025-12-04T03:47:54.819332+00:00", "meta": {"OBJECT_NAME": "FENGYUN 1C DEB", "OBJECT_ID": "1999-025ADB", "EPOCH": "2025-12-03T12:25:07.165920", "MEAN_MOTION": 14.19733737, "ECCENTRICITY": 0.0222385, "INCLINATION": 98.6001, "RA_OF_ASC_NODE": 358.4404, "ARG_OF_PERICENTER": 89.374, "MEAN_ANOMALY": 74.1901, "EPHEMERIS_TYPE": 0, "CLASSIFICATION_TYPE": "U", "NORAD_CAT_ID": 30388, "ELEMENT_SET_NO": 999, "REV_AT_EPOCH": 97301, "BSTAR": 0.00058577, "MEAN_MOTION_DOT": 1.544e-05, "MEAN_MOTION_DDOT": 0}, "tle": {"line1": "1 30388U 99025ADB 25337.51744405  .00001544  00000+0  58577-3 0  9995", "line2": "2 30388  98.6001 358.4404 0222385  89.3740  74.1901 14.19733737973016"}}, "geometry": {"type": "Point", "coordinates": [176.02826141179176, -19.28418386492856]}}, {"type": "Feature", "properties": {"norad_id": 30389, "name": "FENGYUN 1C DEB", "group": "fengyun-1c-debris", "lat": -35.05355332340758, "lon": -127.20042121477667, "alt_km": 743.5215460139298, "timestamp": "2025-12-04T03:47:54.819342+00:00", "meta": {"OBJECT_NAME": "FENGYUN 1C DEB", "OBJECT_ID": "1999-025ADC", "EPOCH": "2025-12-03T05:27:09.121824", "MEAN_MOTION": 14.438035, "ECCENTRICITY": 0.0013684, "INCLINATION": 98.8395, "RA_OF_ASC_NODE": 58.1011, "ARG_OF_PERICENTER": 246.4394, "MEAN_ANOMALY": 172.323, "EPHEMERIS_TYPE": 0, "CLASSIFICATION_TYPE": "U", "NORAD_CAT_ID": 30389, "ELEMENT_SET_NO": 999, "REV_AT_EPOCH": 97649, "BSTAR": 0.0032353, "MEAN_MOTION_DOT": 0.00010995, "MEAN_MOTION_DDOT": 0}, "tle": {"line1": "1 30389U 99025ADC 25337.22718891  .00010995  00000+0  32353-2 0  9997", "line2": "2 30389  98.8395  58.1011 0013684 246.4394 172.3230 14.43803500976498"}}, "geometry": {"type": "Point", "coordinates": [-127.20042121477667, -35.05355332340758]}}, {"type": "Feature", "properties": {"norad_id": 30390, "name": "FENGYUN 1C DEB", "group": "fengyun-1c-debris", "lat": 41.39615252501532, "lon": -110.87683316206528, "alt_km": 758.8336327927254, "timestamp": "2025-12-04T03:47:54.819352+00:00", "meta": {"OBJECT_NAME": "FENGYUN 1C DEB", "OBJECT_ID": "1999-025ADD", "EPOCH": "2025-12-03T05:36:43.446816", "MEAN_MOTION": 14.29576008, "ECCENTRICITY": 0.0068171, "INCLINATION": 98.8236, "RA_OF_ASC_NODE": 60.3172, "ARG_OF_PERICENTER": 191.7009, "MEAN_ANOMALY": 231.9003, "EPHEMERIS_TYPE": 0, "CLASSIFICATION_TYPE": "U", "NORAD_CAT_ID": 30390, "ELEMENT_SET_NO": 999, "REV_AT_EPOCH": 97248, "BSTAR": 0.0027757, "MEAN_MOTION_DOT": 7.243e-05, "MEAN_MOTION_DDOT": 0}, "tle": {"line1": "1 30390U 99025ADD 25337.23383619  .00007243  00000+0  27757-2 0  9990", "line2": "2 30390  98.8236  60.3172 0068171 191.7009 231.9003 14.29576008972482"}}, "geometry": {"type": "Point", "coordinates": [-110.87683316206528, 41.39615252501532]}}, {"type": "Feature", "properties": {"norad_id": 30391, "name": "FENGYUN 1C DEB", "group": "fengyun-1c-debris", "lat": 70.21267413845632, "lon": -130.27189684023375, "alt_km": 882.7787844199438, "timestamp": "2025-12-04T03:47:54.819362+00:00", "meta": {"OBJECT_NAME": "FENGYUN 1C DEB", "OBJECT_ID": "1999-025ADE", "EPOCH": "2025-12-03T02:09:14.851008", "MEAN_MOTION": 14.16166104, "ECCENTRICITY": 0.00710631, "INCLINATION": 98.782, "RA_OF_ASC_NODE": 23.2277, "ARG_OF_PERICENTER": 289.8875, "MEAN_ANOMALY": 133.4158, "EPHEMERIS_TYPE": 0, "CLASSIFICATION_TYPE": "U", "NORAD_CAT_ID": 30391, "ELEMENT_SET_NO": 999, "REV_AT_EPOCH": 96742, "BSTAR": 0.0014859257, "MEAN_MOTION_DOT": 2.969e-05, "MEAN_MOTION_DDOT": 0}, "tle": {"line1": "1 30391U 99025ADE 25337.08975522  .00002969  00000+0  14859-2 0  9993", "line2": "2 30391  98.7820  23.2277 0071063 289.8875 133.4158 14.16166104967422"}}, "geometry": {"type": "Point", "coordinates": [-130.27189684023375, 70.21267413845632]}}, {"type": "Feature", "properties": {"norad_id": 30392, "name": "FENGYUN 1C DEB", "group": "fengyun-1c-debris", "lat": 7.9527323014377584, "lon": -4.262414284750627, "alt_km": 741.6687264831917, "timestamp": "2025-12-04T03:47:54.819373+00:00", "meta": {"OBJECT_NAME": "FENGYUN 1C DEB", "OBJECT_ID": "1999-025ADF", "EPOCH": "2025-12-03T07:21:45.168192", "MEAN_MOTION": 14.07413961, "ECCENTRICITY": 0.0181525, "INCLINATION": 98.786, "RA_OF_ASC_NODE": 356.1472, "ARG_OF_PERICENTER": 23.4614, "MEAN_ANOMALY": 353.2646, "EPHEMERIS_TYPE": 0, "CLASSIFICATION_TYPE": "U", "NORAD_CAT_ID": 30392, "ELEMENT_SET_NO": 999, "REV_AT_EPOCH": 96538, "BSTAR": 0.00084055, "MEAN_MOTION_DOT": 1.601e-05, "MEAN_MOTION_DDOT": 0}, "tle": {"line1": "1 30392U 99025ADF 25337.30677278  .00001601  00000+0  84055-3 0  9994", "line2": "2 30392  98.7860 356.1472 0181525  23.4614 353.2646 14.07413961965383"}}, "geometry": {"type": "Point", "coordinates": [-4.262414284750627, 7.9527323014377584]}}, {"type": "Feature", "properties": {"norad_id": 30393, "name": "FENGYUN 1C DEB", "group": "fengyun-1c-debris", "lat": 2.8145903208406864, "lon": 35.4899744186179, "alt_km": 890.0680145094639, "timestamp": "2025-12-04T03:47:54.819383+00:00", "meta": {"OBJECT_NAME": "FENGYUN 1C DEB", "OBJECT_ID": "1999-025ADG", "EPOCH": "2025-12-03T10:40:28.998912", "MEAN_MOTION": 13.98972451, "ECCENTRICITY": 0.0069579, "INCLINATION": 99.1649, "RA_OF_ASC_NODE": 35.2314, "ARG_OF_PERICENTER": 285.671, "MEAN_ANOMALY": 85.1033, "EPHEMERIS_TYPE": 0, "CLASSIFICATION_TYPE": "U", "NORAD_CAT_ID": 30393, "ELEMENT_SET_NO": 999, "REV_AT_EPOCH": 96200, "BSTAR": 0.00032074, "MEAN_MOTION_DOT": 4.27e-06, "MEAN_MOTION_DDOT": 0}, "tle": {"line1": "1 30393U 99025ADG 25337.44478008  .00000427  00000+0  32074-3 0  9999", "line2": "2 30393  99.1649  35.2314 0069579 285.6710  85.1033 13.98972451962007"}}, "geometry": {"type": "Point", "coordinates": [35.4899744186179, 2.8145903208406864]}}, {"type": "Feature", "properties": {"norad_id": 30394, "name": "FENGYUN 1C DEB", "group": "fengyun-1c-debris", "lat": 67.43980921988476, "lon": -17.376847969856545, "alt_km": 863.8651513176319, "timestamp": "2025-12-04T03:47:54.819393+00:00", "meta": {"OBJECT_NAME": "FENGYUN 1C DEB", "OBJECT_ID": "1999-025ADH", "EPOCH": "2025-12-03T08:37:14.282112", "MEAN_MOTION": 13.95773548, "ECCENTRICITY": 0.0089925, "INCLINATION": 99.4355, "RA_OF_ASC_NODE": 5.4001, "ARG_OF_PERICENTER": 126.6244, "MEAN_ANOMALY": 250.6241, "EPHEMERIS_TYPE": 0, "CLASSIFICATION_TYPE": "U", "NORAD_CAT_ID": 30394, "ELEMENT_SET_NO": 999, "REV_AT_EPOCH": 95973, "BSTAR": 0.00042697, "MEAN_MOTION_DOT": 5.57e-06, "MEAN_MOTION_DDOT": 0}, "tle": {"line1": "1 30394U 99025ADH 25337.35919308  .00000557  00000+0  42697-3 0  9999", "line2": "2 30394  99.4355   5.4001 0089925 126.6244 250.6241 13.95773548959739"}}, "geometry": {"type": "Point", "coordinates": [-17.376847969856545, 67.43980921988476]}}]}